*******************************************************************************
JPL/HORIZONS               1036 Ganymed (A924 UB)          2023-Sep-04 11:09:50
Rec #:    1036 (+COV) Soln.date: 2023-Aug-21_11:40:46   # obs: 9806 (1924-2023)
 
IAU76/J2000 helio. ecliptic osc. elements (au, days, deg., period=Julian yrs):
 
  EPOCH=  2457283.5 ! 2015-Sep-18.00 (TDB)         Residual RMS= .3202
   EC= .5339513908388478   QR= 1.241205473719149   TP= 2457392.4764096322
   OM= 215.5570734989504   W=  132.4802280465892   IN= 26.69231540904023
   A= 2.663253251529305    MA= 335.2874323931283   ADIST= 4.085301029339461
   PER= 4.34637            N= .226769882           ANGMOM= .023736085
   DAN= 2.9777             DDN= 1.39935            L= 351.2621755
   B= 19.3470358           MOID= .34116799         TP= 2016-Jan-04.9764096322
 
Asteroid physical parameters (km, seconds, rotational period in hours):
   GM= n.a.                RAD= 18.8375            ROTPER= 10.297
   H= 9.26                 G= .300                 B-V= .842
                           ALBEDO= .238            STYP= S

ASTEROID comments: 
1: soln ref.= JPL#1125, OCC=0           radar( 0 delay, 1 Dop.)
2: source=ORB
*******************************************************************************


*******************************************************************************
Ephemeris / API_USER Mon Sep  4 11:09:50 2023 Pasadena, USA      / Horizons
*******************************************************************************
Target body name: 1036 Ganymed (A924 UB)          {source: JPL#1125}
Center body name: Solar System Barycenter (0)     {source: DE441}
Center-site name: BODY CENTER
*******************************************************************************
Start time      : A.D. 2023-Aug-12 00:00:00.0000 TDB
Stop  time      : A.D. 2023-Aug-13 00:00:00.0000 TDB
Step-size       : 2880 minutes
*******************************************************************************
Center geodetic : 0.0, 0.0, 0.0                   {E-lon(deg),Lat(deg),Alt(km)}
Center cylindric: 0.0, 0.0, 0.0                   {E-lon(deg),Dxy(km),Dz(km)}
Center radii    : (undefined)
Small perturbers: Yes                             {source: SB441-N16}
Output units    : KM-S
Calendar mode   : Mixed Julian/Gregorian
Output type     : GEOMETRIC cartesian states
Output format   : 2 (position and velocity)
Reference frame : Ecliptic of J2000.0
*******************************************************************************
Initial IAU76/J2000 heliocentric ecliptic osculating elements (au, days, deg.):
  EPOCH=  2457283.5 ! 2015-Sep-18.00 (TDB)         Residual RMS= .3202         
   EC= .5339513908388478   QR= 1.241205473719149   TP= 2457392.4764096322      
   OM= 215.5570734989504   W=  132.4802280465892   IN= 26.69231540904023       
  Equivalent ICRF heliocentric cartesian coordinates (au, au/d):
   X=-4.782752291211095E-02  Y=-1.694542147037134E+00  Z=-4.824210680817874E-02
  VX= 1.368713326059357E-02 VY= 5.988450880576577E-03 VZ= 3.829428075080567E-03
Asteroid physical parameters (km, seconds, rotational period in hours):        
   GM= n.a.                RAD= 18.8375            ROTPER= 10.297              
   H= 9.26                 G= .300                 B-V= .842                   
                           ALBEDO= .238            STYP= S                     
*******************************************************************************
JDTDB
   X     Y     Z
   VX    VY    VZ
*******************************************************************************
$$SOE
2460168.500000000 = A.D. 2023-Aug-12 00:00:00.0000 TDB 
 X =-4.477030100515169E+08 Y =-2.170927731554908E+08 Z =-4.153914303827019E+07
 VX= 1.060800609821875E+01 VY=-7.185075160384681E+00 VZ= 6.029193180605841E+00
$$EOE
*******************************************************************************
 
TIME

  Barycentric Dynamical Time ("TDB" or T_eph) output was requested. This
continuous coordinate time is equivalent to the relativistic proper time
of a clock at rest in a reference frame co-moving with the solar system
barycenter but outside the system's gravity well. It is the independent
variable in the solar system relativistic equations of motion.

  TDB runs at a uniform rate of one SI second per second and is independent
of irregularities in Earth's rotation.
 
CALENDAR SYSTEM

  Mixed calendar mode was active such that calendar dates after AD 1582-Oct-15
(if any) are in the modern Gregorian system. Dates prior to 1582-Oct-5 (if any)
are in the Julian calendar system, which is automatically extended for dates
prior to its adoption on 45-Jan-1 BC.  The Julian calendar is useful for
matching historical dates. The Gregorian calendar more accurately corresponds
to the Earth's orbital motion and seasons. A "Gregorian-only" calendar mode is
available if such physical events are the primary interest.

REFERENCE FRAME AND COORDINATES

  Ecliptic at the standard reference epoch

    Reference epoch: J2000.0
    X-Y plane: adopted Earth orbital plane at the reference epoch
               Note: IAU76 obliquity of 84381.448 arcseconds wrt ICRF X-Y plane
    X-axis   : ICRF
    Z-axis   : perpendicular to the X-Y plane in the directional (+ or -) sense
               of Earth's north pole at the reference epoch.

  Symbol meaning:

    JDTDB    Julian Day Number, Barycentric Dynamical Time
      X      X-component of position vector (km)
      Y      Y-component of position vector (km)
      Z      Z-component of position vector (km)
      VX     X-component of velocity vector (km/sec)                           
      VY     Y-component of velocity vector (km/sec)                           
      VZ     Z-component of velocity vector (km/sec)                           

ABERRATIONS AND CORRECTIONS

 Geometric state vectors have NO corrections or aberrations applied.

Computations by ...

    Solar System Dynamics Group, Horizons On-Line Ephemeris System
    4800 Oak Grove Drive, Jet Propulsion Laboratory
    Pasadena, CA  91109   USA

    General site: https://ssd.jpl.nasa.gov/
    Mailing list: https://ssd.jpl.nasa.gov/email_list.html
    System news : https://ssd.jpl.nasa.gov/horizons/news.html
    User Guide  : https://ssd.jpl.nasa.gov/horizons/manual.html
    Connect     : browser        https://ssd.jpl.nasa.gov/horizons/app.html#/x
                  API            https://ssd-api.jpl.nasa.gov/doc/horizons.html
                  command-line   telnet ssd.jpl.nasa.gov 6775
                  e-mail/batch   https://ssd.jpl.nasa.gov/ftp/ssd/hrzn_batch.txt
                  scripts        https://ssd.jpl.nasa.gov/ftp/ssd/SCRIPTS
    Author      : Jon.D.Giorgini@jpl.nasa.gov
*******************************************************************************
